[{"OBJECT_NAME":"STARLINK-6249","OBJECT_ID":"2023-065AQ","EPOCH":"2026-03-09T22:00:01.999584","MEAN_MOTION":15.13259741,"ECCENTRICITY":0.00026279,"INCLINATION":43.0007,"RA_OF_ASC_NODE":221.7072,"ARG_OF_PERICENTER":261.9718,"MEAN_ANOMALY":105.155,"EPHEMERIS_TYPE":0,"CLASSIFICATION_TYPE":"U","NORAD_CAT_ID":56541,"ELEMENT_SET_NO":999,"REV_AT_EPOCH":572,"BSTAR":0.0064157351,"MEAN_MOTION_DOT":0.0011783,"MEAN_MOTION_DDOT":0},{"OBJECT_NAME":"COSMOS 397 DEB","OBJECT_ID":"1971-015F","EPOCH":"2026-03-09T14:07:56.812800","MEAN_MOTION":14.44057548,"ECCENTRICITY":0.0359355,"INCLINATION":65.7322,"RA_OF_ASC_NODE":253.6291,"ARG_OF_PERICENTER":256.9911,"MEAN_ANOMALY":99.0843,"EPHEMERIS_TYPE":0,"CLASSIFICATION_TYPE":"U","NORAD_CAT_ID":5012,"ELEMENT_SET_NO":999,"REV_AT_EPOCH":68609,"BSTAR":0.0017017,"MEAN_MOTION_DOT":0.00012865,"MEAN_MOTION_DDOT":0}]
